STARLINK-1564           
1 46058U 20055AH  26068.35638415  .00000977  00000+0  45126-4 0  9996
2 46058  53.1603 115.9195 0001061  70.7745 289.3371 15.30193670309013
TEVEL2-7                
1 63238U 25052AE  26068.66113295  .00019244  00000+0  69668-3 0  9998
2 63238  97.4054 324.3041 0008105 124.6830 235.5175 15.28414096 54803
